[{"OBJECT_NAME":"FORMOSAT 7-3","OBJECT_ID":"2019-036E","EPOCH":"2026-03-09T19:49:52.754592","MEAN_MOTION":15.08933962,"ECCENTRICITY":0.00010606,"INCLINATION":23.9981,"RA_OF_ASC_NODE":141.9797,"ARG_OF_PERICENTER":150.4425,"MEAN_ANOMALY":209.6139,"EPHEMERIS_TYPE":0,"CLASSIFICATION_TYPE":"U","NORAD_CAT_ID":44343,"ELEMENT_SET_NO":999,"REV_AT_EPOCH":36821,"BSTAR":0.00037650049,"MEAN_MOTION_DOT":6.445e-5,"MEAN_MOTION_DDOT":0},{"OBJECT_NAME":"STARLINK-5263","OBJECT_ID":"2022-141AN","EPOCH":"2026-03-09T22:19:50.381472","MEAN_MOTION":15.08851171,"ECCENTRICITY":0.00014326,"INCLINATION":53.2179,"RA_OF_ASC_NODE":353.0825,"ARG_OF_PERICENTER":112.1465,"MEAN_ANOMALY":247.9679,"EPHEMERIS_TYPE":0,"CLASSIFICATION_TYPE":"U","NORAD_CAT_ID":54193,"ELEMENT_SET_NO":999,"REV_AT_EPOCH":18603,"BSTAR":0.0005772112,"MEAN_MOTION_DOT":8.913e-5,"MEAN_MOTION_DDOT":0}]
